{"type": "FeatureCollection", "features": [ {"type": "Feature", "properties": {"norad_id": 43437, "name": "SENTINEL-3B", "group": "resource", "lat": 33.08048688036383, "lon": 54.18066971434371, "alt_km": 799.9851016720786, "timestamp": "2025-12-20T18:51:31.375652+00:00", "meta": {"OBJECT_NAME": "SENTINEL-3B", "OBJECT_ID": "2018-039A", "EPOCH": "2025-12-20T01:52:15.630816", "MEAN_MOTION": 14.26736631, "ECCENTRICITY": 0.00016258, "INCLINATION": 98.6258, "RA_OF_ASC_NODE": 59.1578, "ARG_OF_PERICENTER": 94.4485, "MEAN_ANOMALY": 265.6881, "EPHEMERIS_TYPE": 0, "CLASSIFICATION_TYPE": "U", "NORAD_CAT_ID": 43437, "ELEMENT_SET_NO": 999, "REV_AT_EPOCH": 39858, "BSTAR": 5.9718568e-05, "MEAN_MOTION_DOT": 1.01e-06, "MEAN_MOTION_DDOT": 0}, "tle": {"line1": "1 43437U 18039A   25354.07795869  .00000101  00000+0  59719-4 0  9998", "line2": "2 43437  98.6258  59.1578 0001625  94.4485 265.6881 14.26736631398582"}}, "geometry": {"type": "Point", "coordinates": [54.18066971434371, 33.08048688036383]}}, {"type": "Feature", "properties": {"norad_id": 43461, "name": "GAOFEN-5 01", "group": "resource", "lat": -79.19106598034071, "lon": 8.88925293441648, "alt_km": 698.7886614228582, "timestamp": "2025-12-20T18:51:31.375662+00:00", "meta": {"OBJECT_NAME": "GAOFEN-5 01", "OBJECT_ID": "2018-043A", "EPOCH": "2025-12-20T09:22:23.775744", "MEAN_MOTION": 14.60417485, "ECCENTRICITY": 5.345e-05, "INCLINATION": 98.4336, "RA_OF_ASC_NODE": 317.4917, "ARG_OF_PERICENTER": 291.8089, "MEAN_ANOMALY": 68.3053, "EPHEMERIS_TYPE": 0, "CLASSIFICATION_TYPE": "U", "NORAD_CAT_ID": 43461, "ELEMENT_SET_NO": 999, "REV_AT_EPOCH": 40559, "BSTAR": 7.7169973e-05, "MEAN_MOTION_DOT": 3.25e-06, "MEAN_MOTION_DDOT": 0}, "tle": {"line1": "1 43461U 18043A   25354.39055296  .00000325  00000+0  77170-4 0  9997", "line2": "2 43461  98.4336 317.4917 0000534 291.8089  68.3053 14.60417485405592"}}, "geometry": {"type": "Point", "coordinates": [8.88925293441648, -79.19106598034071]}}, {"type": "Feature", "properties": {"norad_id": 43484, "name": "GAOFEN-6", "group": "resource", "lat": 18.90305739836994, "lon": 56.091490049565806, "alt_km": 631.9479187166007, "timestamp": "2025-12-20T18:51:31.375672+00:00", "meta": {"OBJECT_NAME": "GAOFEN-6", "OBJECT_ID": "2018-048A", "EPOCH": "2025-12-20T13:53:37.069728", "MEAN_MOTION": 14.76580113, "ECCENTRICITY": 0.00128713, "INCLINATION": 97.8029, "RA_OF_ASC_NODE": 58.583, "ARG_OF_PERICENTER": 40.4769, "MEAN_ANOMALY": 319.7396, "EPHEMERIS_TYPE": 0, "CLASSIFICATION_TYPE": "U", "NORAD_CAT_ID": 43484, "ELEMENT_SET_NO": 999, "REV_AT_EPOCH": 40703, "BSTAR": 0.00011111454, "MEAN_MOTION_DOT": 7.27e-06, "MEAN_MOTION_DDOT": 0}, "tle": {"line1": "1 43484U 18048A   25354.57890127  .00000727  00000+0  11111-3 0  9995", "line2": "2 43484  97.8029  58.5830 0012871  40.4769 319.7396 14.76580113407036"}}, "geometry": {"type": "Point", "coordinates": [56.091490049565806, 18.90305739836994]}}, {"type": "Feature", "properties": {"norad_id": 43585, "name": "GAOFEN-11 01", "group": "resource", "lat": 49.599709195118834, "lon": -113.85649955079585, "alt_km": 416.05880853938197, "timestamp": "2025-12-20T18:51:31.375683+00:00", "meta": {"OBJECT_NAME": "GAOFEN-11 01", "OBJECT_ID": "2018-063A", "EPOCH": "2025-12-20T15:12:00.606240", "MEAN_MOTION": 15.49433855, "ECCENTRICITY": 0.00039424, "INCLINATION": 97.1561, "RA_OF_ASC_NODE": 57.5029, "ARG_OF_PERICENTER": 272.8268, "MEAN_ANOMALY": 87.2533, "EPHEMERIS_TYPE": 0, "CLASSIFICATION_TYPE": "U", "NORAD_CAT_ID": 43585, "ELEMENT_SET_NO": 999, "REV_AT_EPOCH": 41264, "BSTAR": 0.00024870313, "MEAN_MOTION_DOT": 0.00013581, "MEAN_MOTION_DDOT": 0}, "tle": {"line1": "1 43585U 18063A   25354.63334035  .00013581  00000+0  24870-3 0  9990", "line2": "2 43585  97.1561  57.5029 0003942 272.8268  87.2533 15.49433855412649"}}, "geometry": {"type": "Point", "coordinates": [-113.85649955079585, 49.599709195118834]}}, {"type": "Feature", "properties": {"norad_id": 43613, "name": "ICESAT-2", "group": "resource", "lat": -25.26807885148543, "lon": -116.14400560484385, "alt_km": 488.50393445694135, "timestamp": "2025-12-20T18:51:31.375693+00:00", "meta": {"OBJECT_NAME": "ICESAT-2", "OBJECT_ID": "2018-070A", "EPOCH": "2025-12-20T14:15:16.408224", "MEAN_MOTION": 15.28233244, "ECCENTRICITY": 0.00028644, "INCLINATION": 92.0047, "RA_OF_ASC_NODE": 242.8569, "ARG_OF_PERICENTER": 120.5392, "MEAN_ANOMALY": 239.614, "EPHEMERIS_TYPE": 0, "CLASSIFICATION_TYPE": "U", "NORAD_CAT_ID": 43613, "ELEMENT_SET_NO": 999, "REV_AT_EPOCH": 40518, "BSTAR": 0.00030980614, "MEAN_MOTION_DOT": 8.521e-05, "MEAN_MOTION_DDOT": 0}, "tle": {"line1": "1 43613U 18070A   25354.59393991  .00008521  00000+0  30981-3 0  9999", "line2": "2 43613  92.0047 242.8569 0002864 120.5392 239.6140 15.28233244405186"}}, "geometry": {"type": "Point", "coordinates": [-116.14400560484385, -25.26807885148543]}}, {"type": "Feature", "properties": {"norad_id": 43719, "name": "HYSIS", "group": "resource", "lat": 63.80956703895767, "lon": -105.64027927341651, "alt_km": 626.975234671093, "timestamp": "2025-12-20T18:51:31.375703+00:00", "meta": {"OBJECT_NAME": "HYSIS", "OBJECT_ID": "2018-096A", "EPOCH": "2025-12-20T15:05:33.193824", "MEAN_MOTION": 14.78667771, "ECCENTRICITY": 0.00010706, "INCLINATION": 98.0095, "RA_OF_ASC_NODE": 57.5686, "ARG_OF_PERICENTER": 51.9002, "MEAN_ANOMALY": 308.2305, "EPHEMERIS_TYPE": 0, "CLASSIFICATION_TYPE": "U", "NORAD_CAT_ID": 43719, "ELEMENT_SET_NO": 999, "REV_AT_EPOCH": 38103, "BSTAR": 0.00021529917, "MEAN_MOTION_DOT": 1.526e-05, "MEAN_MOTION_DDOT": 0}, "tle": {"line1": "1 43719U 18096A   25354.62885641  .00001526  00000+0  21530-3 0  9994", "line2": "2 43719  98.0095  57.5686 0001070  51.9002 308.2305 14.78667771381039"}}, "geometry": {"type": "Point", "coordinates": [-105.64027927341651, 63.80956703895767]}}, {"type": "Feature", "properties": {"norad_id": 43783, "name": "KAZSTSAT", "group": "resource", "lat": -49.068983592935076, "lon": -159.0580402368569, "alt_km": 574.0053655404035, "timestamp": "2025-12-20T18:51:31.375713+00:00", "meta": {"OBJECT_NAME": "KAZSTSAT", "OBJECT_ID": "2018-099AB", "EPOCH": "2025-12-20T08:13:38.358048", "MEAN_MOTION": 14.99364446, "ECCENTRICITY": 0.00059921, "INCLINATION": 97.453, "RA_OF_ASC_NODE": 29.2006, "ARG_OF_PERICENTER": 296.0464, "MEAN_ANOMALY": 64.0142, "EPHEMERIS_TYPE": 0, "CLASSIFICATION_TYPE": "U", "NORAD_CAT_ID": 43783, "ELEMENT_SET_NO": 999, "REV_AT_EPOCH": 38450, "BSTAR": 2.1221197e-05, "MEAN_MOTION_DOT": 2.04e-06, "MEAN_MOTION_DDOT": 0}, "tle": {"line1": "1 43783U 18099AB  25354.34280507  .00000204  00000+0  21221-4 0  9997", "line2": "2 43783  97.4530  29.2006 0005992 296.0464  64.0142 14.99364446384507"}}, "geometry": {"type": "Point", "coordinates": [-159.0580402368569, -49.068983592935076]}}, {"type": "Feature", "properties": {"norad_id": 43831, "name": "SAUDISAT 5A", "group": "resource", "lat": -35.65155013425602, "lon": 60.12293320800212, "alt_km": 494.5416237733525, "timestamp": "2025-12-20T18:51:31.375723+00:00", "meta": {"OBJECT_NAME": "SAUDISAT 5A", "OBJECT_ID": "2018-102A", "EPOCH": "2025-12-20T14:17:38.389344", "MEAN_MOTION": 15.25745605, "ECCENTRICITY": 0.00114011, "INCLINATION": 97.3344, "RA_OF_ASC_NODE": 54.6353, "ARG_OF_PERICENTER": 52.1049, "MEAN_ANOMALY": 308.1219, "EPHEMERIS_TYPE": 0, "CLASSIFICATION_TYPE": "U", "NORAD_CAT_ID": 43831, "ELEMENT_SET_NO": 999, "REV_AT_EPOCH": 38842, "BSTAR": 0.00016725583, "MEAN_MOTION_DOT": 4.203e-05, "MEAN_MOTION_DDOT": 0}, "tle": {"line1": "1 43831U 18102A   25354.59558321  .00004203  00000+0  16726-3 0  9991", "line2": "2 43831  97.3344  54.6353 0011401  52.1049 308.1219 15.25745605388424"}}, "geometry": {"type": "Point", "coordinates": [60.12293320800212, -35.65155013425602]}}, {"type": "Feature", "properties": {"norad_id": 43833, "name": "SAUDISAT 5B", "group": "resource", "lat": 26.224937369909153, "lon": 53.93233315134824, "alt_km": 479.2405460190921, "timestamp": "2025-12-20T18:51:31.375732+00:00", "meta": {"OBJECT_NAME": "SAUDISAT 5B", "OBJECT_ID": "2018-102C", "EPOCH": "2025-12-20T14:01:20.615232", "MEAN_MOTION": 15.26094339, "ECCENTRICITY": 0.00121233, "INCLINATION": 97.3439, "RA_OF_ASC_NODE": 57.3769, "ARG_OF_PERICENTER": 54.1954, "MEAN_ANOMALY": 306.041, "EPHEMERIS_TYPE": 0, "CLASSIFICATION_TYPE": "U", "NORAD_CAT_ID": 43833, "ELEMENT_SET_NO": 999, "REV_AT_EPOCH": 38853, "BSTAR": 0.00015852032, "MEAN_MOTION_DOT": 4.023e-05, "MEAN_MOTION_DDOT": 0}, "tle": {"line1": "1 43833U 18102C   25354.58426638  .00004023  00000+0  15852-3 0  9996", "line2": "2 43833  97.3439  57.3769 0012123  54.1954 306.0410 15.26094339388535"}}, "geometry": {"type": "Point", "coordinates": [53.93233315134824, 26.224937369909153]}}, {"type": "Feature", "properties": {"norad_id": 44622, "name": "GAOFEN-10R", "group": "resource", "lat": 20.260325045594904, "lon": 125.31034289658605, "alt_km": 624.4881346310785, "timestamp": "2025-12-20T18:51:31.375743+00:00", "meta": {"OBJECT_NAME": "GAOFEN-10R", "OBJECT_ID": "2019-066A", "EPOCH": "2025-12-20T14:54:12.195936", "MEAN_MOTION": 14.82816223, "ECCENTRICITY": 0.00073483, "INCLINATION": 98.0289, "RA_OF_ASC_NODE": 302.1583, "ARG_OF_PERICENTER": 19.1239, "MEAN_ANOMALY": 341.0249, "EPHEMERIS_TYPE": 0, "CLASSIFICATION_TYPE": "U", "NORAD_CAT_ID": 44622, "ELEMENT_SET_NO": 999, "REV_AT_EPOCH": 33591, "BSTAR": 0.000138185, "MEAN_MOTION_DOT": 1.064e-05, "MEAN_MOTION_DDOT": 0}, "tle": {"line1": "1 44622U 19066A   25354.62097449  .00001064  00000+0  13819-3 0  9995", "line2": "2 44622  98.0289 302.1583 0007348  19.1239 341.0249 14.82816223335916"}}, "geometry": {"type": "Point", "coordinates": [125.31034289658605, 20.260325045594904]}}]}